OPTICUBE 04             
1 41851U 16067D   19146.21601250  .00000616  00000-0  59072-4 0  9997
2 41851  97.9146 243.5457 0010569 102.5679 257.6725 14.96798215138400
AEROCUBE 8D             
1 41852U 16067E   19145.74932690  .00000697  00000-0  66307-4 0  9998
2 41852  97.9158 242.8987 0011354 104.1564 256.0919 14.96701955138311
AEROCUBE 8C             
1 41853U 16067F   19145.90536032 -.00000187  00000-0 -11106-4 0  9990
2 41853  97.9160 242.9953 0011528 103.4592 256.7915 14.96669881138331
PROMETHEUS 2-1          
1 41854U 16067G   19146.21036024  .00000656  00000-0  62419-4 0  9994
2 41854  97.9161 243.4270 0011936 104.0356 256.2192 14.96874075138389
PROMETHEUS 2-3          
1 41855U 16067H   19145.81169490  .00000685  00000-0  64933-4 0  9999
2 41855  97.9164 243.0383 0012151 105.4933 254.7631 14.96878915138322
INS-1B                  
1 41954U 17008G   19145.72578158  .00000776  00000-0  35084-4 0  9996
2 41954  97.4011 211.0809 0008035 221.5662 138.4965 15.23885657126159
BGUSAT                  
1 41999U 17008BD  19145.80916782  .00001308  00000-0  53669-4 0  9994
2 41999  97.4082 213.4290 0006671 235.9694 124.0911 15.26016056125652
DIDO-2                  
1 42000U 17008BE  19146.17391275  .00000606  00000-0  28053-4 0  9992
2 42000  97.4023 212.0668 0007024 241.3951 118.6580 15.23854544125622
PEASSS                  
1 42015U 17008BV  19146.15240839  .00000698  00000-0  31001-4 0  9993
2 42015  97.4031 212.9648 0004814 246.1715 113.9018 15.24806531126167
AL-FARABI 1             
1 42016U 17008BW  19146.42328739  .00000956  00000-0  40663-4 0  9991
2 42016  97.4046 213.7461 0004697 243.4261 116.6496 15.25426347126356
NAYIF-1 (EO-88)         
1 42017U 17008BX  19146.14891963  .00000894  00000-0  38199-4 0  9997
2 42017  97.4042 213.4843 0004655 244.8812 115.1943 15.25457651126336
PHOENIX                 
1 42706U 98067LP  19128.42254485  .08245211  12410-4  57150-3 0  9990
2 42706  51.5998 109.6560 0003143 270.9046 228.4560 16.40380041113340
ALTAIR PATHFINDER       
1 42711U 98067LS  19146.31968731  .00026495  00000-0  14796-3 0  9990
2 42711  51.6351  50.8683 0003438  73.8907 286.2473 15.79191320115399
SHARC                   
1 42712U 98067LT  19123.64217769  .08981558  12375-4  84912-3 0  9997
2 42712  51.6192 152.4129 0003348 312.8737 146.7300 16.37776182112255
ZA-AEROSAT              
1 42713U 98067LU  19146.35425679  .00694355  30437-3  44976-3 0  9994
2 42713  51.6220  22.0720 0007603 252.0771 107.9418 16.16693471115762
NJUST-1                 
1 42722U 98067MB  19146.15028552  .00095544  14778-4  25157-3 0  9997
2 42722  51.6342  33.4858 0004568 129.8644 358.8223 15.94715920114671
NSIGHT                  
1 42726U 98067MF  19146.23709335  .00014892  00000-0  12328-3 0  9997
2 42726  51.6367  68.6070 0006005  86.6096 273.5588 15.70492284114134
UCLSAT                  
1 42765U 17036A   19146.20841518  .00000732  00000-0  34390-4 0  9996
2 42765  97.3527 204.7184 0010210 319.1948  40.8523 15.22687776106891
LITUANICASAT-2          
1 42768U 17036D   19146.38486661  .00001314  00000-0  59248-4 0  9998
2 42768  97.3561 204.4809 0013574 305.9209  54.0767 15.22701628106768
AALTO-1                 
1 42775U 17036L   19146.11510299  .00000444  00000-0  22888-4 0  9995
2 42775  97.3513 203.4304 0012572 307.4676  52.5416 15.21298561106629
URSA MAIOR              
1 42776U 17036M   19146.20942343  .00000540  00000-0  27093-4 0  9995
2 42776  97.3522 203.6624 0012379 307.1270  52.8834 15.21428048106643
COMPASS 2               
1 42777U 17036N   19146.20763419  .00001016  00000-0  46389-4 0  9999
2 42777  97.3559 204.7642 0011075 308.9055  51.1193 15.22814992106691
DIAMOND RED             
1 42783U 17036U   19145.91666750  .00000590  00000-0  28724-4 0  9992
2 42783  97.3528 204.0542 0010933 320.8502  39.1942 15.22150075106635
PEGASUS                 
1 42784U 17036V   19146.16317311  .00000718  00000-0  34010-4 0  9994
2 42784  97.3531 204.5031 0010799 319.4125  40.6305 15.22437415106684
DIAMOND GREEN           
1 42785U 17036W   19146.11270608  .00000594  00000-0  28890-4 0  9998
2 42785  97.3530 204.2693 0010832 320.7893  39.2557 15.22151101106655
DIAMOND BLUE            
1 42786U 17036X   19145.84880231  .00000584  00000-0  28459-4 0  9997
2 42786  97.3530 204.0098 0010701 322.2021  37.8463 15.22148361106696
NUDTSAT                 
1 42787U 17036Y   19145.91293352  .00002022  00000-0  87862-4 0  9990
2 42787  97.3561 204.8932 0011926 321.2279  38.8091 15.23381435106522
SUCHAI                  
1 42788U 17036Z   19146.11089377  .00000787  00000-0  36552-4 0  9990
2 42788  97.3536 204.7346 0010346 319.0949  40.9510 15.22841574106767
SKCUBE                  
1 42789U 17036AA  19145.92801399  .00000730  00000-0  34245-4 0  9990
2 42789  97.3532 204.5033 0010246 320.0164  40.0318 15.22745544106650
VZLUSAT-1               
1 42790U 17036AB  19145.89977489  .00000972  00000-0  43814-4 0  9992
2 42790  97.3546 204.8864 0009756 319.5155  40.5355 15.23372530106679
ROBUSTA-1B              
1 42792U 17036AD  19145.73003425  .00000738  00000-0  34409-4 0  9997
2 42792  97.3533 204.4505 0009851 321.9332  38.1208 15.22908588106649
CICERO 6                
1 42793U 17036AE  19145.71801582  .00000505  00000-0  24733-4 0  9997
2 42793  97.3518 204.2451 0009170 324.4487  35.6138 15.22529286106709
D-SAT                   
1 42794U 17036AF  19146.11877982  .00000072  00000-0  11811-4 0  9992
2 42794  97.5416 191.8565 0125603 219.6581 139.5402 14.91081503104825
TOKI                    
1 42820U 98067MU  19123.10626650  .20777511  12651-4  37226-3 0  9990
2 42820  51.6051 142.7539 0005305 301.2009  59.2873 16.47402492104441
MAZAALAI (NUMSAT-1)     
1 42822U 98067MW  19131.43194823  .10190864  12355-4  76666-3 0  9990
2 42822  51.6054 100.7046 0005179 246.5694 204.7401 16.39672911105736
BRAC ONNESHA            
1 42823U 98067MX  19126.46325411  .10871672  12483-4  53364-3 0  9992
2 42823  51.6136 126.1830 0002073 268.7751  91.3478 16.43067843104944
NIGERIAEDUSAT-1         
1 42824U 98067MY  19133.12526632  .12220275  12529-4  51637-3 0  9993
2 42824  51.6091  92.5367 0003545 299.4874 174.6355 16.43636834105973
CORVUS BC2              
1 42846U 17042X   19146.27269743  .00000071  00000-0  12264-4 0  9996
2 42846  97.5683  41.2055 0010821 127.3265 232.8942 14.91964456101527
CORVUS BC1              
1 42847U 17042Y   19146.29456867 -.00000053  00000-0  74115-8 0  9992
2 42847  97.5685  41.3289 0010483 126.4591 233.7596 14.92064243101527
MIRATA                  
1 43015U 17073C   19145.73352397  .00000385  00000-0  36123-4 0  9995
2 43015  97.7198  67.8806 0254203 235.7136 121.9774 14.78940919 81758
MAKERSAT 0              
1 43016U 17073D   19145.74377135  .00000244  00000-0  25060-4 0  9996
2 43016  97.7233  68.0875 0256364 235.9881 121.6742 14.78706784 81759
ASTERIA                 
1 43020U 98067NH  19146.31111638  .00015331  00000-0  13145-3 0  9994
2 43020  51.6429  79.0400 0003077  56.4767 303.6524 15.69620492 86180
DELLINGR (RBLE)         
1 43021U 98067NJ  19146.43717030  .00005965  00000-0  70828-4 0  9990
2 43021  51.6384  89.5321 0002824  35.8200 324.2983 15.62763461 86052
AEROCUBE 7B (OCSD B)    
1 43042U 17071F   19146.48420549  .00001709  00000-0  50443-4 0  9993
2 43042  51.6382 166.3688 0005160  69.4866 290.6672 15.41053254 82506
AEROCUBE 7C (OCSD C)    
1 43043U 17071G   19145.90065086  .00001350  00000-0  41912-4 0  9994
2 43043  51.6384 169.2357 0005360  71.3280 288.8286 15.41054481 82387
CHEFSAT                 
1 43044U 17071H   19145.86612111  .00003570  00000-0  87198-4 0  9999
2 43044  51.6374 164.6122 0005184  67.6541 292.4994 15.43612619 82447
ASGARDIA 1              
1 43049U 17071N   19145.59518484  .00001350  00000-0  41696-4 0  9999
2 43049  51.6393 170.2225 0002847  84.9844 275.1466 15.41184014 82332
ISARA                   
1 43050U 17071P   19146.19796194  .00003131  00000-0  78884-4 0  9992
2 43050  51.6371 163.7897 0002685  78.8681 281.2607 15.43108096 82471
PROPCUBE 2 (FAUNA)      
1 43052U 17071R   19146.12381053  .00001636  00000-0  48077-4 0  9990
2 43052  51.6390 167.0198 0002796  82.8651 277.2653 15.41454564 82423
CORVUS BC3              
1 43118U 18004H   19145.75317905  .00000444  00000-0  22038-4 0  9998
2 43118  97.4878 213.1874 0009858 345.1397  14.9548 15.22805656 75834
MICROMAS-2A             
1 43131U 18004W   19146.23872459  .00001245  00000-0  54313-4 0  9998
2 43131  97.4901 214.3058 0008777 346.3358  13.7640 15.24036860 75949
CICERO 7                
1 43143U 18004AJ  19145.73910357  .00000915  00000-0  40541-4 0  9996
2 43143  97.4889 214.0200 0007328   0.7569 359.3677 15.24182009 75888
GOMX-4B                 
1 43196U 18015E   19146.26280165  .00000235  00000-0  12635-4 0  9990
2 43196  97.3875 274.1406 0020075  32.7670 327.4809 15.23923812 72779
GOMX-4A                 
1 43197U 18015F   19146.39084288  .00000302  00000-0  15337-4 0  9990
2 43197  97.3886 274.2882 0020348  34.2744  40.3605 15.24016209 72806
1KUNS-PF                
1 43466U 98067NP  19146.29955739  .00012700  00000-0  13005-3 0  9995
2 43466  51.6372  93.0918 0002061  61.4489 298.6714 15.65392657 59257
UBAKUSAT                
1 43467U 98067NQ  19146.45253954  .00007805  00000-0  92353-4 0  9998
2 43467  51.6370  95.6108 0002589  11.8094 348.2960 15.62335076 59244
BATSU-CS1 (IRAZU)       
1 43468U 98067NR  19145.75504297  .00016003  00000-0  14695-3 0  9992
2 43468  51.6364  93.1877 0002339  65.5919 294.5321 15.67893957159190
CUBERRT                 
1 43546U 98067NU  19146.12797322  .00012755  00000-0  14048-3 0  9996
2 43546  51.6378  98.6897 0006430  48.8796 311.2752 15.63512186 49301
TEMPEST-D               
1 43547U 98067NV  19145.86400707  .00002112  00000-0  34729-4 0  9990
2 43547  51.6383 105.9245 0006402  37.8269 322.3172 15.57610642 48867
